[{"OBJECT_NAME":"LEMUR-2-GREENBERG","OBJECT_ID":"2017-042N","EPOCH":"2026-03-09T11:05:17.256192","MEAN_MOTION":15.27971352,"ECCENTRICITY":0.00091572,"INCLINATION":97.3781,"RA_OF_ASC_NODE":249.8007,"ARG_OF_PERICENTER":4.0119,"MEAN_ANOMALY":356.1192,"EPHEMERIS_TYPE":0,"CLASSIFICATION_TYPE":"U","NORAD_CAT_ID":42837,"ELEMENT_SET_NO":999,"REV_AT_EPOCH":47314,"BSTAR":0.00072539172,"MEAN_MOTION_DOT":0.00019778,"MEAN_MOTION_DDOT":0},{"OBJECT_NAME":"STARLINK-34206","OBJECT_ID":"2025-236N","EPOCH":"2026-03-09T09:09:39.547008","MEAN_MOTION":15.30194554,"ECCENTRICITY":0.0001101,"INCLINATION":53.158,"RA_OF_ASC_NODE":105.5726,"ARG_OF_PERICENTER":76.4635,"MEAN_ANOMALY":283.6489,"EPHEMERIS_TYPE":0,"CLASSIFICATION_TYPE":"U","NORAD_CAT_ID":66098,"ELEMENT_SET_NO":999,"REV_AT_EPOCH":2288,"BSTAR":0.0009263481,"MEAN_MOTION_DOT":0.00027172,"MEAN_MOTION_DDOT":0}]
